OBJECT_NAME,OBJECT_ID,EPOCH,MEAN_MOTION,ECCENTRICITY,INCLINATION,RA_OF_ASC_NODE,ARG_OF_PERICENTER,MEAN_ANOMALY,EPHEMERIS_TYPE,CLASSIFICATION_TYPE,NORAD_CAT_ID,ELEMENT_SET_NO,REV_AT_EPOCH,BSTAR,MEAN_MOTION_DOT,MEAN_MOTION_DDOT
STARLINK-37604,2026-114X,2026-06-09T02:09:23.992992,15.80996706,.0000756,53.1586,242.6504,140.8807,219.2270,0,U,69203,999,349,.13788E-2,.282112E-2,0
STARLINK-37669,2026-114Y,2026-06-09T02:08:19.262112,15.80993191,.0001078,53.1584,242.6450,118.8123,241.3009,0,U,69204,999,349,.13117E-2,.267855E-2,0
STARLINK-37691,2026-114Z,2026-06-09T04:00:03.000096,15.78033505,.0000906,53.1595,242.2565,87.0911,354.0043,0,U,69205,999,352,.86629E-4,.14384E-3,0
STARLINK-37671,2026-114AA,2026-06-09T02:06:09.574848,15.80999786,.000092,53.1585,242.6347,125.9590,234.1518,0,U,69206,999,349,.14377E-2,.29468E-2,0
STARLINK-37647,2026-114AB,2026-06-09T02:07:14.722176,15.80975646,.0000704,53.1584,242.6408,108.6312,251.4787,0,U,69207,999,349,.13929E-2,.284829E-2,0
STARLINK-37562,2026-114AC,2026-06-09T02:04:00.037920,15.80975844,.0000797,53.1584,242.6245,108.5901,251.5209,0,U,69208,999,349,.11297E-2,.229386E-2,0
STARLINK-37682,2026-114AD,2026-06-09T02:02:55.110912,15.80985243,.0001061,53.1583,242.6191,142.1114,217.9984,0,U,69209,999,349,.1311E-2,.267615E-2,0
STARLINK-37402,2026-114AE,2026-06-09T02:01:50.405952,15.80973695,.0000677,53.1584,242.6143,117.7589,242.3502,0,U,69210,999,349,.1153E-2,.234236E-2,0
STARLINK-37613,2026-115A,2026-06-09T04:00:03.000096,15.67208339,.0001722,97.2841,177.1581,81.4887,50.8161,0,U,69211,999,340,-.27481E-1,-.2559163E-1,0
STARLINK-37713,2026-115B,2026-06-09T03:09:02.905632,15.79594281,.0000507,97.2826,177.1509,111.3859,248.7462,0,U,69212,999,341,-.43039E-2,-.718528E-2,0
STARLINK-37716,2026-115C,2026-06-09T01:38:39.821280,15.80881709,.0001204,97.2831,177.0837,85.7861,274.3545,0,U,69213,999,340,.77422E-3,.151206E-2,0
STARLINK-37620,2026-115D,2026-06-09T04:00:03.000096,15.62877664,.0001413,97.2839,177.1475,59.7450,38.8855,0,U,69214,999,340,-.32208E-1,-.2526174E-1,0
STARLINK-37700,2026-115E,2026-06-09T04:00:03.000096,15.52800742,.0001211,97.2840,177.0782,110.1727,193.8710,0,U,69215,999,340,-.60813E-1,-.328904E-1,0
STARLINK-37766,2026-115F,2026-06-09T01:34:20.269632,15.80855635,.0001022,97.2828,177.0872,44.8642,315.2708,0,U,69216,999,340,.57474E-3,.111566E-2,0
STARLINK-37763,2026-115G,2026-06-09T01:33:25.034976,15.80887222,.0001416,97.2829,177.0880,103.1935,256.9492,0,U,69217,999,340,.60878E-3,.118448E-2,0
STARLINK-37724,2026-115H,2026-06-09T01:32:12.986016,15.80872062,.0000958,97.2831,177.0898,58.3948,301.7414,0,U,69218,999,340,.6984E-3,.136088E-2,0
STARLINK-37758,2026-115J,2026-06-08T23:56:26.424384,15.80906293,.0001079,97.2830,177.0272,89.3733,270.7659,0,U,69219,999,339,.10378E-2,.204209E-2,0
STARLINK-37201,2026-115K,2026-06-08T23:58:13.211328,15.80861590,.0001475,97.2837,177.0252,77.5848,282.5585,0,U,69220,999,339,.39673E-3,.76681E-3,0
STARLINK-37728,2026-115L,2026-06-08T23:54:43.917696,15.80910842,.0001003,97.2837,177.0292,84.9228,275.2154,0,U,69221,999,339,.90709E-3,.177965E-2,0
STARLINK-37760,2026-115M,2026-06-08T23:58:40.950048,15.80906992,.0001218,97.2834,177.0252,103.0169,257.1235,0,U,69222,999,339,.93454E-3,.183439E-2,0
STARLINK-37759,2026-115N,2026-06-08T23:53:42.046656,15.80897711,.0001022,97.2835,177.0293,68.0887,292.0490,0,U,69223,999,339,.88263E-3,.172959E-2,0
STARLINK-37725,2026-115P,2026-06-08T23:54:31.405248,15.80869690,.0000956,97.2836,177.0288,75.6971,284.4403,0,U,69224,999,339,.65863E-3,.1282E-2,0
STARLINK-37770,2026-115Q,2026-06-08T23:55:23.274624,15.80894104,.000141,97.2836,177.0281,96.3287,263.8142,0,U,69225,999,339,.74996E-3,.146469E-2,0
STARLINK-37736,2026-115R,2026-06-08T23:54:21.644640,15.81011927,.0001244,97.2832,177.0293,132.8788,227.2585,0,U,69226,999,339,.21289E-2,.432385E-2,0
STARLINK-37737,2026-115S,2026-06-08T23:51:29.337984,15.80897205,.000103,97.2836,177.0312,66.7057,293.4319,0,U,69227,999,339,.86377E-3,.169183E-2,0
STARLINK-37618,2026-115T,2026-06-09T01:17:23.187840,15.80908816,.0001561,97.2837,177.1037,90.4602,269.6845,0,U,69228,999,340,.99293E-3,.195194E-2,0
STARLINK-37679,2026-115U,2026-06-09T01:19:30.882720,15.80894866,.0001419,97.2835,177.1014,94.9544,265.1887,0,U,69229,999,340,.86328E-3,.169067E-2,0
STARLINK-37746,2026-115V,2026-06-09T01:21:43.537824,15.80864246,.0001006,97.2833,177.0992,58.7043,301.4324,0,U,69230,999,340,.57691E-3,.112039E-2,0
STARLINK-37557,2026-115W,2026-06-08T19:12:46.623168,15.80809550,.0001242,97.2839,176.8365,118.7157,241.4236,0,U,69231,999,336,.35783E-2,.747196E-2,0
STARLINK-37745,2026-115X,2026-06-09T01:11:18.921120,15.80883173,.000113,97.2838,177.1099,72.1283,288.0108,0,U,69232,999,340,.80663E-3,.15767E-2,0
