STARLINK-37604          
1 69203U 26114X   26160.08986103  .00282112  00000+0  13788-2 0  9998
2 69203  53.1586 242.6504 0000756 140.8807 219.2270 15.80996706  3499
STARLINK-37669          
1 69204U 26114Y   26160.08911183  .00267855  00000+0  13117-2 0  9998
2 69204  53.1584 242.6450 0001078 118.8123 241.3009 15.80993191  3493
STARLINK-37691          
1 69205U 26114Z   26160.16670139  .00014384  00000+0  86629-4 0  9998
2 69205  53.1595 242.2565 0000906  87.0911 354.0043 15.78033505  3525
STARLINK-37671          
1 69206U 26114AA  26160.08761082  .00294680  00000+0  14377-2 0  9996
2 69206  53.1585 242.6347 0000920 125.9590 234.1518 15.80999786  3494
STARLINK-37647          
1 69207U 26114AB  26160.08836484  .00284829  00000+0  13929-2 0  9992
2 69207  53.1584 242.6408 0000704 108.6312 251.4787 15.80975646  3491
STARLINK-37562          
1 69208U 26114AC  26160.08611155  .00229386  00000+0  11297-2 0  9992
2 69208  53.1584 242.6245 0000797 108.5901 251.5209 15.80975844  3496
STARLINK-37682          
1 69209U 26114AD  26160.08536008  .00267615  00000+0  13110-2 0  9999
2 69209  53.1583 242.6191 0001061 142.1114 217.9984 15.80985243  3491
STARLINK-37402          
1 69210U 26114AE  26160.08461118  .00234236  00000+0  11530-2 0  9997
2 69210  53.1584 242.6143 0000677 117.7589 242.3502 15.80973695  3493
STARLINK-37613          
1 69211U 26115A   26160.16670139 -.02559163  00000+0 -27481-1 0  9997
2 69211  97.2841 177.1581 0001722  81.4887  50.8161 15.67208339  3402
STARLINK-37713          
1 69212U 26115B   26160.13128363 -.00718528  00000+0 -43039-2 0  9990
2 69212  97.2826 177.1509 0000507 111.3859 248.7462 15.79594281  3418
STARLINK-37716          
1 69213U 26115C   26160.06851645  .00151206  00000+0  77422-3 0  9995
2 69213  97.2831 177.0837 0001204  85.7861 274.3545 15.80881709  3402
STARLINK-37620          
1 69214U 26115D   26160.16670139 -.02526174  00000+0 -32208-1 0  9999
2 69214  97.2839 177.1475 0001413  59.7450  38.8855 15.62877664  3409
STARLINK-37700          
1 69215U 26115E   26160.16670139 -.03289040  00000+0 -60813-1 0  9992
2 69215  97.2840 177.0782 0001211 110.1727 193.8710 15.52800742  3401
STARLINK-37766          
1 69216U 26115F   26160.06551238  .00111566  00000+0  57474-3 0  9993
2 69216  97.2828 177.0872 0001022  44.8642 315.2708 15.80855635  3406
STARLINK-37763          
1 69217U 26115G   26160.06487309  .00118448  00000+0  60878-3 0  9999
2 69217  97.2829 177.0880 0001416 103.1935 256.9492 15.80887222  3406
STARLINK-37724          
1 69218U 26115H   26160.06403919  .00136088  00000+0  69840-3 0  9993
2 69218  97.2831 177.0898 0000958  58.3948 301.7414 15.80872062  3403
STARLINK-37758          
1 69219U 26115J   26159.99752806  .00204209  00000+0  10378-2 0  9998
2 69219  97.2830 177.0272 0001079  89.3733 270.7659 15.80906293  3398
STARLINK-37201          
1 69220U 26115K   26159.99876402  .00076681  00000+0  39673-3 0  9990
2 69220  97.2837 177.0252 0001475  77.5848 282.5585 15.80861590  3390
STARLINK-37728          
1 69221U 26115L   26159.99634164  .00177965  00000+0  90709-3 0  9992
2 69221  97.2837 177.0292 0001003  84.9228 275.2154 15.80910842  3392
STARLINK-37760          
1 69222U 26115M   26159.99908507  .00183439  00000+0  93454-3 0  9991
2 69222  97.2834 177.0252 0001218 103.0169 257.1235 15.80906992  3391
STARLINK-37759          
1 69223U 26115N   26159.99562554  .00172959  00000+0  88263-3 0  9997
2 69223  97.2835 177.0293 0001022  68.0887 292.0490 15.80897711  3397
STARLINK-37725          
1 69224U 26115P   26159.99619682  .00128200  00000+0  65863-3 0  9994
2 69224  97.2836 177.0288 0000956  75.6971 284.4403 15.80869690  3390
STARLINK-37770          
1 69225U 26115Q   26159.99679716  .00146469  00000+0  74996-3 0  9993
2 69225  97.2836 177.0281 0001410  96.3287 263.8142 15.80894104  3399
STARLINK-37736          
1 69226U 26115R   26159.99608385  .00432385  00000+0  21289-2 0  9999
2 69226  97.2832 177.0293 0001244 132.8788 227.2585 15.81011927  3396
STARLINK-37737          
1 69227U 26115S   26159.99408956  .00169183  00000+0  86377-3 0  9995
2 69227  97.2836 177.0312 0001030  66.7057 293.4319 15.80897205  3390
STARLINK-37618          
1 69228U 26115T   26160.05374060  .00195194  00000+0  99293-3 0  9995
2 69228  97.2837 177.1037 0001561  90.4602 269.6845 15.80908816  3408
STARLINK-37679          
1 69229U 26115U   26160.05521855  .00169067  00000+0  86328-3 0  9997
2 69229  97.2835 177.1014 0001419  94.9544 265.1887 15.80894866  3404
STARLINK-37746          
1 69230U 26115V   26160.05675391  .00112039  00000+0  57691-3 0  9992
2 69230  97.2833 177.0992 0001006  58.7043 301.4324 15.80864246  3401
STARLINK-37557          
1 69231U 26115W   26159.80053962  .00747196  00000+0  35783-2 0  9993
2 69231  97.2839 176.8365 0001242 118.7157 241.4236 15.80809550  3361
STARLINK-37745          
1 69232U 26115X   26160.04952455  .00157670  00000+0  80663-3 0  9997
2 69232  97.2838 177.1099 0001130  72.1283 288.0108 15.80883173  3401
